{"spkid": "50689040", "covariance": {"labels": ["e", "q", "tp", "node", "peri", "i"], "data": [["2.319310239201943E-15", "-3.533843174996154E-15", "-1.54566453519868E-12", "1.19624024549849E-13", "-1.753789341675047E-12", "-4.330189259075946E-14"], ["-3.533843174996154E-15", "5.397224793304819E-15", "2.34288809622698E-12", "-1.895163412934622E-13", "2.668206075171234E-12", "6.579283071198816E-14"], ["-1.54566453519868E-12", "2.34288809622698E-12", "1.902722517881491E-9", "-2.184767151242174E-11", "2.034872321110507E-9", "-1.402173790195176E-11"], ["1.19624024549849E-13", "-1.895163412934622E-13", "-2.184767151242174E-11", "1.106179821033985E-9", "-1.125198372874724E-9", "1.139081747031971E-10"], ["-1.753789341675047E-12", "2.668206075171234E-12", "2.034872321110507E-9", "-1.125198372874724E-9", "3.275951116181971E-9", "-1.286574422418741E-10"], ["-4.330189259075946E-14", "6.579283071198816E-14", "-1.402173790195176E-11", "1.139081747031971E-10", "-1.286574422418741E-10", "3.195823606530489E-11"]], "elements": [{"label": "e", "sigma": 4.81592175933325e-08, "name": "e", "units": null, "title": "eccentricity", "value": ".337319103891762"}, {"label": "q", "name": "q", "sigma": 7.34658069669477e-08, "units": "au", "value": "1.046671377927238", "title": "perihelion distance"}, {"name": "tp", "sigma": 4.36202076781105e-05, "value": "2456908.983012853160", "title": "time of perihelion passage", "units": "TDB", "label": "tp"}, {"label": "node", "sigma": 3.32592817275717e-05, "name": "om", "value": "339.0052154305176", "title": "longitude of the ascending node", "units": "deg"}, {"label": "peri", "sigma": 5.72359250487137e-05, "name": "w", "value": "4.61435967707409", "title": "argument of perihelion", "units": "deg"}, {"label": "i", "units": "deg", "value": "2.946663809751343", "title": "inclination", "sigma": 5.65316159907931e-06, "name": "i"}], "epoch": "2457053.5"}, "elements": [{"units": null, "title": "eccentricity", "value": ".3359710713185456", "name": "e", "sigma": "4.6176E-8", "label": "e"}, {"title": "semi-major axis", "value": "1.575665341034739", "units": "au", "sigma": "4.374E-9", "name": "a", "label": "a"}, {"label": "q", "name": "q", "sigma": "7.428E-8", "units": "au", "title": "perihelion distance", "value": "1.046287368367796"}, {"label": "i", "value": "2.949176749970193", "title": "inclination; angle with respect to x-y ecliptic plane", "units": "deg", "sigma": "5.6658E-6", "name": "i"}, {"sigma": "3.3234E-5", "name": "om", "units": "deg", "title": "longitude of the ascending node", "value": "338.8185708267563", "label": "node"}, {"label": "peri", "title": "argument of perihelion", "value": "4.965546540589361", "units": "deg", "sigma": "5.6736E-5", "name": "w"}, {"units": "deg", "value": "336.1986141726231", "title": "mean anomaly", "sigma": "2.4474E-5", "name": "ma", "label": "M"}, {"sigma": "4.9265E-5", "name": "tp", "value": "2461248.263280091450", "title": "time of perihelion passage", "units": "TDB", "label": "tp"}, {"name": "per", "sigma": "3.0081E-6", "units": "d", "value": "722.4277173450986", "title": "sidereal orbital period", "label": "period"}, {"label": "n", "name": "n", "sigma": "2.075E-9", "units": "deg/d", "title": "mean motion", "value": ".4983197506914461"}, {"label": "Q", "name": "ad", "sigma": "5.8435E-9", "units": "au", "value": "2.105043313701681", "title": "aphelion distance"}], "epoch": "2461200.5"}